*******************************************************************************
Ephemeris / WWW_USER Fri Mar  7 10:36:18 2025 Pasadena, USA      / Horizons    
*******************************************************************************
Target body name: (2017 SN16)                     {source: JPL#20}
Center body name: Earth (399)                     {source: DE441}
Center-site name: Mauna Kea
*******************************************************************************
Start time      : A.D. 2018-Aug-27 04:51:00.0000 UT      
Stop  time      : A.D. 2018-Aug-27 15:56:00.0000 UT      
Step-size       : 1 minutes
*******************************************************************************
Target pole/equ : undefined
Target radii    : undefined                                                    
Center geodetic : 204.5278, 19.8260847, 4.21024   {E-lon(deg),Lat(deg),Alt(km)}
Center cylindric: 204.5278, 6006.35451, 2151.0229 {E-lon(deg),Dxy(km),Dz(km)}
Center pole/equ : ITRF93                          {East-longitude positive}
Center radii    : 6378.137, 6378.137, 6356.752 km {Equator_a, b, pole_c}       
Target primary  : Sun
Vis. interferer : MOON (R_eq= 1737.400) km        {source: DE441}
Rel. light bend : Sun                             {source: DE441}
Rel. lght bnd GM: 1.3271E+11 km^3/s^2                                          
Small-body perts: Yes                             {source: SB441-N16}
Atmos refraction: NO (AIRLESS)
RA format       : HMS
Time format     : CAL 
Calendar mode   : Mixed Julian/Gregorian
RTS-only print  : NO       
EOP file        : eop.250306.p250602                                           
EOP coverage    : DATA-BASED 1962-JAN-20 TO 2025-MAR-06. PREDICTS-> 2025-JUN-01
Units conversion: 1 au= 149597870.700 km, c= 299792.458 km/s, 1 day= 86400.0 s 
Table cut-offs 1: Elevation (-90.0deg=NO ),Airmass (>38.000=NO), Daylight (YES)
Table cut-offs 2: Solar elongation (  0.0,180.0=NO ),Local Hour Angle( 0.0=NO )
Table cut-offs 3: RA/DEC angular rate (     0.0=NO )                           
*******************************************************************************
Initial IAU76/J2000 heliocentric ecliptic osculating elements (au, days, deg.):
  EPOCH=  2458305.5 ! 2018-Jul-06.00 (TDB)         Residual RMS= .23751        
   EC= .1454884975659386   QR= .8682464985612274   TP= 2458145.5722438502      
   OM= 2.759719470837934   W=  137.1017088998531   IN= 13.38264682844635       
  Equivalent ICRF heliocentric cartesian coordinates (au, au/d):
   X= 5.756755401261899E-01  Y=-7.953424559592890E-01  Z=-6.031561894536019E-01
  VX= 1.332076113263395E-02 VY= 5.454663564585547E-03 VZ= 3.896229736425836E-03
Asteroid physical parameters (km, seconds, rotational period in hours):        
   GM= n.a.                RAD= n.a.               ROTPER= n.a.                
   H= 23.34                G= .150                 B-V= n.a.                   
                           ALBEDO= n.a.            STYP= n.a.                  
*******************************************************************************
 Date__(UT)__HR:MN     R.A._________(ICRF)_________DEC
******************************************************
$$SOE
 2018-Aug-27 11:00  m  01 36 07.722340 -26 09 24.13697
 2018-Aug-27 11:01  m  01 36 07.631947 -26 09 23.80038
 2018-Aug-27 11:02  m  01 36 07.541512 -26 09 23.46350
 2018-Aug-27 11:03  m  01 36 07.451035 -26 09 23.12632
 2018-Aug-27 11:04  m  01 36 07.360517 -26 09 22.78886
 2018-Aug-27 11:05  m  01 36 07.269958 -26 09 22.45110
 2018-Aug-27 11:06  m  01 36 07.179358 -26 09 22.11305
 2018-Aug-27 11:07  m  01 36 07.088717 -26 09 21.77471
 2018-Aug-27 11:08  m  01 36 06.998035 -26 09 21.43607
 2018-Aug-27 11:09  m  01 36 06.907313 -26 09 21.09713
 2018-Aug-27 11:10  m  01 36 06.816550 -26 09 20.75790
 2018-Aug-27 11:11  m  01 36 06.725748 -26 09 20.41837
 2018-Aug-27 11:12  m  01 36 06.634905 -26 09 20.07854
 2018-Aug-27 11:13  m  01 36 06.544023 -26 09 19.73842
 2018-Aug-27 11:14  m  01 36 06.453102 -26 09 19.39799
 2018-Aug-27 11:15  m  01 36 06.362142 -26 09 19.05726
 2018-Aug-27 11:16  m  01 36 06.271142 -26 09 18.71622
 2018-Aug-27 11:17  m  01 36 06.180104 -26 09 18.37489
 2018-Aug-27 11:18  m  01 36 06.089027 -26 09 18.03325
 2018-Aug-27 11:19  m  01 36 05.997911 -26 09 17.69130
 2018-Aug-27 11:20  m  01 36 05.906758 -26 09 17.34905
 2018-Aug-27 11:21  m  01 36 05.815566 -26 09 17.00649
 2018-Aug-27 11:22  m  01 36 05.724337 -26 09 16.66363
 2018-Aug-27 11:23  m  01 36 05.633071 -26 09 16.32045
 2018-Aug-27 11:24  m  01 36 05.541767 -26 09 15.97697
 2018-Aug-27 11:25  m  01 36 05.450426 -26 09 15.63318
 2018-Aug-27 11:26  m  01 36 05.359048 -26 09 15.28907
 2018-Aug-27 11:27  m  01 36 05.267633 -26 09 14.94465
 2018-Aug-27 11:28  m  01 36 05.176182 -26 09 14.59993
 2018-Aug-27 11:29  m  01 36 05.084695 -26 09 14.25488
 2018-Aug-27 11:30  m  01 36 04.993171 -26 09 13.90953
 2018-Aug-27 11:31  m  01 36 04.901612 -26 09 13.56385
 2018-Aug-27 11:32  m  01 36 04.810017 -26 09 13.21786
 2018-Aug-27 11:33  m  01 36 04.718387 -26 09 12.87156
 2018-Aug-27 11:34  m  01 36 04.626722 -26 09 12.52494
 2018-Aug-27 11:35  m  01 36 04.535022 -26 09 12.17799
 2018-Aug-27 11:36  m  01 36 04.443287 -26 09 11.83073
 2018-Aug-27 11:37  m  01 36 04.351518 -26 09 11.48315
 2018-Aug-27 11:38  m  01 36 04.259715 -26 09 11.13525
 2018-Aug-27 11:39  m  01 36 04.167877 -26 09 10.78703
 2018-Aug-27 11:40  m  01 36 04.076006 -26 09 10.43848
 2018-Aug-27 11:41  m  01 36 03.984101 -26 09 10.08962
 2018-Aug-27 11:42  m  01 36 03.892162 -26 09 09.74042
 2018-Aug-27 11:43  m  01 36 03.800191 -26 09 09.39091
 2018-Aug-27 11:44  m  01 36 03.708187 -26 09 09.04107
 2018-Aug-27 11:45  m  01 36 03.616150 -26 09 08.69090
 2018-Aug-27 11:46  m  01 36 03.524080 -26 09 08.34040
 2018-Aug-27 11:47  m  01 36 03.431978 -26 09 07.98958
 2018-Aug-27 11:48  m  01 36 03.339845 -26 09 07.63843
 2018-Aug-27 11:49  m  01 36 03.247679 -26 09 07.28695
 2018-Aug-27 11:50  m  01 36 03.155482 -26 09 06.93514
 2018-Aug-27 11:51  m  01 36 03.063254 -26 09 06.58301
 2018-Aug-27 11:52  m  01 36 02.970995 -26 09 06.23054
 2018-Aug-27 11:53  m  01 36 02.878704 -26 09 05.87773
 2018-Aug-27 11:54  m  01 36 02.786383 -26 09 05.52460
 2018-Aug-27 11:55  m  01 36 02.694032 -26 09 05.17113
 2018-Aug-27 11:56  m  01 36 02.601651 -26 09 04.81733
 2018-Aug-27 11:57  m  01 36 02.509239 -26 09 04.46320
 2018-Aug-27 11:58  m  01 36 02.416798 -26 09 04.10873
 2018-Aug-27 11:59  m  01 36 02.324328 -26 09 03.75392
 2018-Aug-27 12:00  m  01 36 02.231828 -26 09 03.39878
 2018-Aug-27 12:01  m  01 36 02.139299 -26 09 03.04330
 2018-Aug-27 12:02  m  01 36 02.046742 -26 09 02.68749
 2018-Aug-27 12:03  m  01 36 01.954156 -26 09 02.33133
 2018-Aug-27 12:04  m  01 36 01.861541 -26 09 01.97484
 2018-Aug-27 12:05  m  01 36 01.768899 -26 09 01.61800
 2018-Aug-27 12:06  m  01 36 01.676229 -26 09 01.26083
 2018-Aug-27 12:07  m  01 36 01.583531 -26 09 00.90332
 2018-Aug-27 12:08  m  01 36 01.490806 -26 09 00.54546
 2018-Aug-27 12:09  m  01 36 01.398054 -26 09 00.18727
 2018-Aug-27 12:10  m  01 36 01.305275 -26 08 59.82873
 2018-Aug-27 12:11  m  01 36 01.212469 -26 08 59.46985
 2018-Aug-27 12:12  m  01 36 01.119637 -26 08 59.11062
 2018-Aug-27 12:13  m  01 36 01.026779 -26 08 58.75105
 2018-Aug-27 12:14  m  01 36 00.933895 -26 08 58.39114
 2018-Aug-27 12:15  m  01 36 00.840985 -26 08 58.03088
 2018-Aug-27 12:16  m  01 36 00.748050 -26 08 57.67027
 2018-Aug-27 12:17  m  01 36 00.655089 -26 08 57.30932
 2018-Aug-27 12:18  m  01 36 00.562104 -26 08 56.94802
 2018-Aug-27 12:19  m  01 36 00.469094 -26 08 56.58637
 2018-Aug-27 12:20  m  01 36 00.376060 -26 08 56.22438
 2018-Aug-27 12:21  m  01 36 00.283001 -26 08 55.86204
 2018-Aug-27 12:22  m  01 36 00.189918 -26 08 55.49934
 2018-Aug-27 12:23  m  01 36 00.096812 -26 08 55.13630
 2018-Aug-27 12:24  m  01 36 00.003682 -26 08 54.77291
 2018-Aug-27 12:25  m  01 35 59.910529 -26 08 54.40917
 2018-Aug-27 12:26  m  01 35 59.817353 -26 08 54.04508
 2018-Aug-27 12:27  m  01 35 59.724154 -26 08 53.68064
 2018-Aug-27 12:28  m  01 35 59.630933 -26 08 53.31584
 2018-Aug-27 12:29  m  01 35 59.537689 -26 08 52.95069
 2018-Aug-27 12:30  m  01 35 59.444423 -26 08 52.58519
 2018-Aug-27 12:31  m  01 35 59.351136 -26 08 52.21934
 2018-Aug-27 12:32  m  01 35 59.257827 -26 08 51.85313
 2018-Aug-27 12:33  m  01 35 59.164497 -26 08 51.48657
 2018-Aug-27 12:34  m  01 35 59.071146 -26 08 51.11965
 2018-Aug-27 12:35  m  01 35 58.977774 -26 08 50.75238
 2018-Aug-27 12:36  m  01 35 58.884381 -26 08 50.38475
 2018-Aug-27 12:37  m  01 35 58.790968 -26 08 50.01677
 2018-Aug-27 12:38  m  01 35 58.697536 -26 08 49.64843
 2018-Aug-27 12:39  m  01 35 58.604083 -26 08 49.27974
 2018-Aug-27 12:40  m  01 35 58.510611 -26 08 48.91069
 2018-Aug-27 12:41  m  01 35 58.417120 -26 08 48.54128
 2018-Aug-27 12:42  m  01 35 58.323609 -26 08 48.17151
 2018-Aug-27 12:43  m  01 35 58.230080 -26 08 47.80138
 2018-Aug-27 12:44  m  01 35 58.136532 -26 08 47.43090
 2018-Aug-27 12:45  m  01 35 58.042966 -26 08 47.06006
 2018-Aug-27 12:46  m  01 35 57.949382 -26 08 46.68885
 2018-Aug-27 12:47  m  01 35 57.855780 -26 08 46.31729
 2018-Aug-27 12:48  m  01 35 57.762161 -26 08 45.94537
 2018-Aug-27 12:49  m  01 35 57.668524 -26 08 45.57309
 2018-Aug-27 12:50  m  01 35 57.574871 -26 08 45.20045
 2018-Aug-27 12:51  m  01 35 57.481200 -26 08 44.82744
 2018-Aug-27 12:52  m  01 35 57.387513 -26 08 44.45408
 2018-Aug-27 12:53  m  01 35 57.293810 -26 08 44.08035
 2018-Aug-27 12:54  m  01 35 57.200091 -26 08 43.70626
 2018-Aug-27 12:55  m  01 35 57.106356 -26 08 43.33181
 2018-Aug-27 12:56  m  01 35 57.012606 -26 08 42.95700
 2018-Aug-27 12:57  m  01 35 56.918840 -26 08 42.58182
 2018-Aug-27 12:58  m  01 35 56.825059 -26 08 42.20629
 2018-Aug-27 12:59  m  01 35 56.731264 -26 08 41.83038
 2018-Aug-27 13:00  m  01 35 56.637454 -26 08 41.45412
 2018-Aug-27 13:01  m  01 35 56.543630 -26 08 41.07749
 2018-Aug-27 13:02  m  01 35 56.449791 -26 08 40.70050
